STARLINK-32676          
1 62426U 24249T   26068.39993789  .00022292  00000+0  81742-3 0  9991
2 62426  43.0006 316.1997 0000374  22.4031 337.6837 15.27568767 67764
TRANSPORTER-12 OBJECT BA
1 62657U 25009BA  26068.70118713  .00011330  00000+0  42733-3 0  9991
2 62657  97.3985 151.1390 0000403 234.6623 125.4579 15.27214003 63739
